{
  "links" : {
    "next" : "https://api.nasa.gov/neo/rest/v1/feed?start_date=2009-07-23&end_date=2009-07-23&detailed=true&api_key=t0TVs3DtDT2H8Oy2Zy8m2eVrNsAVKAexjcZXUckd",
    "prev" : "https://api.nasa.gov/neo/rest/v1/feed?start_date=2009-07-21&end_date=2009-07-21&detailed=true&api_key=t0TVs3DtDT2H8Oy2Zy8m2eVrNsAVKAexjcZXUckd",
    "self" : "https://api.nasa.gov/neo/rest/v1/feed?start_date=2009-07-22&end_date=2009-07-22&detailed=true&api_key=t0TVs3DtDT2H8Oy2Zy8m2eVrNsAVKAexjcZXUckd"
  },
  "element_count" : 10,
  "near_earth_objects" : {
    "2009-07-22" : [ {
      "links" : {
        "self" : "https://api.nasa.gov/neo/rest/v1/neo/3557529?api_key=t0TVs3DtDT2H8Oy2Zy8m2eVrNsAVKAexjcZXUckd"
      },
      "neo_reference_id" : "3557529",
      "name" : "(2011 CD50)",
      "nasa_jpl_url" : "http://ssd.jpl.nasa.gov/sbdb.cgi?sstr=3557529",
      "absolute_magnitude_h" : 25.1,
      "estimated_diameter" : {
        "kilometers" : {
          "estimated_diameter_min" : 0.0253837029,
          "estimated_diameter_max" : 0.0567596853
        },
        "meters" : {
          "estimated_diameter_min" : 25.3837029364,
          "estimated_diameter_max" : 56.7596852866
        },
        "miles" : {
          "estimated_diameter_min" : 0.0157726969,
          "estimated_diameter_max" : 0.0352688224
        },
        "feet" : {
          "estimated_diameter_min" : 83.279867942,
          "estimated_diameter_max" : 186.2194458756
        }
      },
      "is_potentially_hazardous_asteroid" : false,
      "close_approach_data" : [ {
        "close_approach_date" : "2009-07-22",
        "epoch_date_close_approach" : 1248246000000,
        "relative_velocity" : {
          "kilometers_per_second" : "15.1046403488",
          "kilometers_per_hour" : "54376.7052557801",
          "miles_per_hour" : "33787.5699962929"
        },
        "miss_distance" : {
          "astronomical" : "0.1542675561",
          "lunar" : "60.0100784302",
          "kilometers" : "23078098",
          "miles" : "14340065"
        },
        "orbiting_body" : "Earth"
      } ],
      "orbital_data" : {
        "orbit_id" : "5",
        "orbit_determination_date" : "2017-04-06 08:54:28",
        "orbit_uncertainty" : "9",
        "minimum_orbit_intersection" : ".0703475",
        "jupiter_tisserand_invariant" : "5.567",
        "epoch_osculation" : "2455605.5",
        "eccentricity" : ".3043392880934007",
        "semi_major_axis" : "1.101626331525431",
        "inclination" : "15.68874073541279",
        "ascending_node_longitude" : "319.9831075799049",
        "orbital_period" : "422.3280128457978",
        "perihelion_distance" : ".7663581580440367",
        "perihelion_argument" : "72.39680441197655",
        "aphelion_distance" : "1.436894505006826",
        "perihelion_time" : "2455517.974527291616",
        "mean_anomaly" : "74.60828838394625",
        "mean_motion" : ".8524179998721626",
        "equinox" : "J2000"
      }
    }, {
      "links" : {
        "self" : "https://api.nasa.gov/neo/rest/v1/neo/3678609?api_key=t0TVs3DtDT2H8Oy2Zy8m2eVrNsAVKAexjcZXUckd"
      },
      "neo_reference_id" : "3678609",
      "name" : "(2014 OS338)",
      "nasa_jpl_url" : "http://ssd.jpl.nasa.gov/sbdb.cgi?sstr=3678609",
      "absolute_magnitude_h" : 27.0,
      "estimated_diameter" : {
        "kilometers" : {
          "estimated_diameter_min" : 0.0105816886,
          "estimated_diameter_max" : 0.023661375
        },
        "meters" : {
          "estimated_diameter_min" : 10.5816885933,
          "estimated_diameter_max" : 23.6613750114
        },
        "miles" : {
          "estimated_diameter_min" : 0.0065751544,
          "estimated_diameter_max" : 0.0147024923
        },
        "feet" : {
          "estimated_diameter_min" : 34.7168272045,
          "estimated_diameter_max" : 77.6291855923
        }
      },
      "is_potentially_hazardous_asteroid" : false,
      "close_approach_data" : [ {
        "close_approach_date" : "2009-07-22",
        "epoch_date_close_approach" : 1248246000000,
        "relative_velocity" : {
          "kilometers_per_second" : "7.9083899725",
          "kilometers_per_hour" : "28470.2039009805",
          "miles_per_hour" : "17690.2775294732"
        },
        "miss_distance" : {
          "astronomical" : "0.0731701413",
          "lunar" : "28.4631843567",
          "kilometers" : "10946097",
          "miles" : "6801589.5"
        },
        "orbiting_body" : "Earth"
      } ],
      "orbital_data" : {
        "orbit_id" : "5",
        "orbit_determination_date" : "2017-04-06 08:39:26",
        "orbit_uncertainty" : "7",
        "minimum_orbit_intersection" : ".0299892",
        "jupiter_tisserand_invariant" : "5.408",
        "epoch_osculation" : "2458000.5",
        "eccentricity" : ".1916527436633153",
        "semi_major_axis" : "1.159320879663503",
        "inclination" : "6.854983563914328",
        "ascending_node_longitude" : "126.6318041308618",
        "orbital_period" : "455.9360300549091",
        "perihelion_distance" : ".9371338522898244",
        "perihelion_argument" : "103.3099434915535",
        "aphelion_distance" : "1.381507907037181",
        "perihelion_time" : "2458165.498133106649",
        "mean_anomaly" : "229.7200396484566",
        "mean_motion" : ".7895844510394245",
        "equinox" : "J2000"
      }
    }, {
      "links" : {
        "self" : "https://api.nasa.gov/neo/rest/v1/neo/2022771?api_key=t0TVs3DtDT2H8Oy2Zy8m2eVrNsAVKAexjcZXUckd"
      },
      "neo_reference_id" : "2022771",
      "name" : "22771 (1999 CU3)",
      "nasa_jpl_url" : "http://ssd.jpl.nasa.gov/sbdb.cgi?sstr=2022771",
      "absolute_magnitude_h" : 16.8,
      "estimated_diameter" : {
        "kilometers" : {
          "estimated_diameter_min" : 1.1602590821,
          "estimated_diameter_max" : 2.5944181791
        },
        "meters" : {
          "estimated_diameter_min" : 1160.2590820944,
          "estimated_diameter_max" : 2594.4181790745
        },
        "miles" : {
          "estimated_diameter_min" : 0.7209513461,
          "estimated_diameter_max" : 1.6120962183
        },
        "feet" : {
          "estimated_diameter_min" : 3806.6244068985,
          "estimated_diameter_max" : 8511.8709386348
        }
      },
      "is_potentially_hazardous_asteroid" : false,
      "close_approach_data" : [ {
        "close_approach_date" : "2009-07-22",
        "epoch_date_close_approach" : 1248246000000,
        "relative_velocity" : {
          "kilometers_per_second" : "13.6445831464",
          "kilometers_per_hour" : "49120.4993271386",
          "miles_per_hour" : "30521.5680402435"
        },
        "miss_distance" : {
          "astronomical" : "0.2823406272",
          "lunar" : "109.8304977417",
          "kilometers" : "42237556",
          "miles" : "26245200"
        },
        "orbiting_body" : "Earth"
      } ],
      "orbital_data" : {
        "orbit_id" : "386",
        "orbit_determination_date" : "2017-04-12 06:14:24",
        "orbit_uncertainty" : "0",
        "minimum_orbit_intersection" : ".0627723",
        "jupiter_tisserand_invariant" : "4.219",
        "epoch_osculation" : "2458000.5",
        "eccentricity" : ".5240197351639614",
        "semi_major_axis" : "1.576723777775135",
        "inclination" : "11.40093111251454",
        "ascending_node_longitude" : "338.9915903576408",
        "orbital_period" : "723.1557644873617",
        "perihelion_distance" : ".7504894013186879",
        "perihelion_argument" : "305.7309043688938",
        "aphelion_distance" : "2.402958154231581",
        "perihelion_time" : "2457915.758627282302",
        "mean_anomaly" : "42.18578579678109",
        "mean_motion" : ".49781806033891",
        "equinox" : "J2000"
      }
    } ]
  }
}